[{"OBJECT_NAME":"APRIZESAT 4","OBJECT_ID":"2009-041D","EPOCH":"2026-03-09T17:20:05.268480","MEAN_MOTION":14.83708924,"ECCENTRICITY":0.00421139,"INCLINATION":98.1485,"RA_OF_ASC_NODE":142.0456,"ARG_OF_PERICENTER":284.5899,"MEAN_ANOMALY":75.0646,"EPHEMERIS_TYPE":0,"CLASSIFICATION_TYPE":"U","NORAD_CAT_ID":35684,"ELEMENT_SET_NO":999,"REV_AT_EPOCH":89661,"BSTAR":0.00013888514,"MEAN_MOTION_DOT":1.106e-5,"MEAN_MOTION_DDOT":0},{"OBJECT_NAME":"CZ-4B DEB","OBJECT_ID":"1999-057AC","EPOCH":"2026-03-09T20:32:53.554560","MEAN_MOTION":14.64554719,"ECCENTRICITY":0.01346675,"INCLINATION":99.3393,"RA_OF_ASC_NODE":354.0634,"ARG_OF_PERICENTER":225.5433,"MEAN_ANOMALY":169.1413,"EPHEMERIS_TYPE":0,"CLASSIFICATION_TYPE":"U","NORAD_CAT_ID":26140,"ELEMENT_SET_NO":999,"REV_AT_EPOCH":35948,"BSTAR":0.00067401571,"MEAN_MOTION_DOT":4.016e-5,"MEAN_MOTION_DDOT":0}]
